{
  "type": "FeatureCollection",
  "features": [
    {
      "type": "Feature",
      "properties": {
        "norad_id": 41772,
        "name": "SKYSAT-C5",
        "group": "resource",
        "lat": -74.66167217311997,
        "lon": -177.19899737542283,
        "alt_km": 468.11968428961154,
        "timestamp": "2025-12-11T22:43:46.928931+00:00",
        "meta_object_name": "SKYSAT-C5",
        "meta_object_id": "2016-058C",
        "meta_epoch": "2025-12-11T01:16:55.377408",
        "meta_mean_motion": 15.35316112,
        "meta_eccentricity": 0.00024634,
        "meta_inclination": 97.0761,
        "meta_ra_of_asc_node": 28.8717,
        "meta_arg_of_pericenter": 138.4277,
        "meta_mean_anomaly": 221.7155,
        "meta_ephemeris_type": 0,
        "meta_classification_type": "U",
        "meta_norad_cat_id": 41772,
        "meta_element_set_no": 999,
        "meta_rev_at_epoch": 51490,
        "meta_bstar": 0.0004403824,
        "meta_mean_motion_dot": 0.00015041,
        "meta_mean_motion_ddot": 0,
        "tle_line1": "1 41772U 16058C   25345.05341872  .00015041  00000+0  44038-3 0  9992",
        "tle_line2": "2 41772  97.0761  28.8717 0002463 138.4277 221.7155 15.35316112514903"
      },
      "geometry": {
        "type": "Point",
        "coordinates": [
          -177.19899737542283,
          -74.66167217311997
        ]
      }
    },
    {
      "type": "Feature",
      "properties": {
        "norad_id": 41773,
        "name": "SKYSAT-C2",
        "group": "resource",
        "lat": -77.77964491641204,
        "lon": 155.73332832818903,
        "alt_km": 463.777468662568,
        "timestamp": "2025-12-11T22:43:46.928941+00:00",
        "meta_object_name": "SKYSAT-C2",
        "meta_object_id": "2016-058D",
        "meta_epoch": "2025-12-11T12:13:42.560832",
        "meta_mean_motion": 15.37227477,
        "meta_eccentricity": 0.00043738,
        "meta_inclination": 97.0368,
        "meta_ra_of_asc_node": 10.0882,
        "meta_arg_of_pericenter": 37.6519,
        "meta_mean_anomaly": 322.5032,
        "meta_ephemeris_type": 0,
        "meta_classification_type": "U",
        "meta_norad_cat_id": 41773,
        "meta_element_set_no": 999,
        "meta_rev_at_epoch": 51617,
        "meta_bstar": 0.00055910138,
        "meta_mean_motion_dot": 0.00020343,
        "meta_mean_motion_ddot": 0,
        "tle_line1": "1 41773U 16058D   25345.50952038  .00020343  00000+0  55910-3 0  9997",
        "tle_line2": "2 41773  97.0368  10.0882 0004373  37.6519 322.5032 15.37227477516176"
      },
      "geometry": {
        "type": "Point",
        "coordinates": [
          155.73332832818903,
          -77.77964491641204
        ]
      }
    },
    {
      "type": "Feature",
      "properties": {
        "norad_id": 41774,
        "name": "SKYSAT-C3",
        "group": "resource",
        "lat": 67.25400768932832,
        "lon": 2.863898537347714,
        "alt_km": 425.8776527232867,
        "timestamp": "2025-12-11T22:43:46.928951+00:00",
        "meta_object_name": "SKYSAT-C3",
        "meta_object_id": "2016-058E",
        "meta_epoch": "2025-12-11T08:26:21.530112",
        "meta_mean_motion": 15.44319647,
        "meta_eccentricity": 0.00016218,
        "meta_inclination": 96.9303,
        "meta_ra_of_asc_node": 19.1617,
        "meta_arg_of_pericenter": 107.3439,
        "meta_mean_anomaly": 252.7988,
        "meta_ephemeris_type": 0,
        "meta_classification_type": "U",
        "meta_norad_cat_id": 41774,
        "meta_element_set_no": 999,
        "meta_rev_at_epoch": 51704,
        "meta_bstar": 0.00065903387,
        "meta_mean_motion_dot": 0.00030358,
        "meta_mean_motion_ddot": 0,
        "tle_line1": "1 41774U 16058E   25345.35163808  .00030358  00000+0  65903-3 0  9990",
        "tle_line2": "2 41774  96.9303  19.1617 0001621 107.3439 252.7988 15.44319647517049"
      },
      "geometry": {
        "type": "Point",
        "coordinates": [
          2.863898537347714,
          67.25400768932832
        ]
      }
    },
    {
      "type": "Feature",
      "properties": {
        "norad_id": 41785,
        "name": "ALSAT 1B",
        "group": "resource",
        "lat": 46.53905040006806,
        "lon": -173.93255256672958,
        "alt_km": 643.7205344714912,
        "timestamp": "2025-12-11T22:43:46.928961+00:00",
        "meta_object_name": "ALSAT 1B",
        "meta_object_id": "2016-059C",
        "meta_epoch": "2025-12-11T12:20:27.986784",
        "meta_mean_motion": 14.72072726,
        "meta_eccentricity": 0.00106973,
        "meta_inclination": 97.7816,
        "meta_ra_of_asc_node": 357.3566,
        "meta_arg_of_pericenter": 106.6737,
        "meta_mean_anomaly": 253.5647,
        "meta_ephemeris_type": 0,
        "meta_classification_type": "U",
        "meta_norad_cat_id": 41785,
        "meta_element_set_no": 999,
        "meta_rev_at_epoch": 49296,
        "meta_bstar": 0.00010090774,
        "meta_mean_motion_dot": 5.88e-06,
        "meta_mean_motion_ddot": 0,
        "tle_line1": "1 41785U 16059C   25345.51421281  .00000588  00000+0  10091-3 0  9993",
        "tle_line2": "2 41785  97.7816 357.3566 0010697 106.6737 253.5647 14.72072726492963"
      },
      "geometry": {
        "type": "Point",
        "coordinates": [
          -173.93255256672958,
          46.53905040006806
        ]
      }
    },
    {
      "type": "Feature",
      "properties": {
        "norad_id": 41787,
        "name": "PATHFINDER 1",
        "group": "resource",
        "lat": -44.67292674622957,
        "lon": 160.95471816317445,
        "alt_km": 692.9341862214987,
        "timestamp": "2025-12-11T22:43:46.928971+00:00",
        "meta_object_name": "PATHFINDER 1",
        "meta_object_id": "2016-059E",
        "meta_epoch": "2025-12-11T11:53:22.646400",
        "meta_mean_motion": 14.67318093,
        "meta_eccentricity": 0.00300529,
        "meta_inclination": 97.8139,
        "meta_ra_of_asc_node": 348.3267,
        "meta_arg_of_pericenter": 84.9916,
        "meta_mean_anomaly": 275.4719,
        "meta_ephemeris_type": 0,
        "meta_classification_type": "U",
        "meta_norad_cat_id": 41787,
        "meta_element_set_no": 999,
        "meta_rev_at_epoch": 49218,
        "meta_bstar": 0.00024545769,
        "meta_mean_motion_dot": 1.348e-05,
        "meta_mean_motion_ddot": 0,
        "tle_line1": "1 41787U 16059E   25345.49540100  .00001348  00000+0  24546-3 0  9999",
        "tle_line2": "2 41787  97.8139 348.3267 0030052  84.9916 275.4719 14.67318093492187"
      },
      "geometry": {
        "type": "Point",
        "coordinates": [
          160.95471816317445,
          -44.67292674622957
        ]
      }
    },
    {
      "type": "Feature",
      "properties": {
        "norad_id": 41790,
        "name": "SCATSAT 1",
        "group": "resource",
        "lat": -4.955044576820216,
        "lon": -138.10430997452605,
        "alt_km": 613.2408181078727,
        "timestamp": "2025-12-11T22:43:46.928981+00:00",
        "meta_object_name": "SCATSAT 1",
        "meta_object_id": "2016-059H",
        "meta_epoch": "2025-12-11T15:24:20.808864",
        "meta_mean_motion": 14.78930902,
        "meta_eccentricity": 0.00562291,
        "meta_inclination": 98.1464,
        "meta_ra_of_asc_node": 42.2983,
        "meta_arg_of_pericenter": 131.4501,
        "meta_mean_anomaly": 229.1559,
        "meta_ephemeris_type": 0,
        "meta_classification_type": "U",
        "meta_norad_cat_id": 41790,
        "meta_element_set_no": 999,
        "meta_rev_at_epoch": 7386,
        "meta_bstar": 0.00036012993,
        "meta_mean_motion_dot": 2.671e-05,
        "meta_mean_motion_ddot": 0,
        "tle_line1": "1 41790U 16059H   25345.64190751  .00002671  00000+0  36013-3 0  9995",
        "tle_line2": "2 41790  98.1464  42.2983 0056229 131.4501 229.1559 14.78930902 73862"
      },
      "geometry": {
        "type": "Point",
        "coordinates": [
          -138.10430997452605,
          -4.955044576820216
        ]
      }
    },
    {
      "type": "Feature",
      "properties": {
        "norad_id": 41875,
        "name": "GOKTURK 1A",
        "group": "resource",
        "lat": -44.52773954740075,
        "lon": -113.58160890076232,
        "alt_km": 691.3897911543654,
        "timestamp": "2025-12-11T22:43:46.928991+00:00",
        "meta_object_name": "GOKTURK 1A",
        "meta_object_id": "2016-073A",
        "meta_epoch": "2025-12-11T16:22:07.569120",
        "meta_mean_motion": 14.62777842,
        "meta_eccentricity": 0.0001224,
        "meta_inclination": 98.1424,
        "meta_ra_of_asc_node": 238.0611,
        "meta_arg_of_pericenter": 78.3284,
        "meta_mean_anomaly": 281.8055,
        "meta_ephemeris_type": 0,
        "meta_classification_type": "U",
        "meta_norad_cat_id": 41875,
        "meta_element_set_no": 999,
        "meta_rev_at_epoch": 48141,
        "meta_bstar": 0.00019084155,
        "meta_mean_motion_dot": 9.26e-06,
        "meta_mean_motion_ddot": 0,
        "tle_line1": "1 41875U 16073A   25345.68203205  .00000926  00000+0  19084-3 0  9998",
        "tle_line2": "2 41875  98.1424 238.0611 0001224  78.3284 281.8055 14.62777842481412"
      },
      "geometry": {
        "type": "Point",
        "coordinates": [
          -113.58160890076232,
          -44.52773954740075
        ]
      }
    }
  ]
}